[{"OBJECT_NAME":"OBJECT L","OBJECT_ID":"2023-085L","EPOCH":"2026-03-09T23:02:21.999840","MEAN_MOTION":15.29079976,"ECCENTRICITY":0.0005428,"INCLINATION":97.486,"RA_OF_ASC_NODE":178.8598,"ARG_OF_PERICENTER":50.8528,"MEAN_ANOMALY":309.3193,"EPHEMERIS_TYPE":0,"CLASSIFICATION_TYPE":"U","NORAD_CAT_ID":57014,"ELEMENT_SET_NO":999,"REV_AT_EPOCH":15144,"BSTAR":0.00063462603,"MEAN_MOTION_DOT":0.00017871,"MEAN_MOTION_DDOT":0},{"OBJECT_NAME":"STARLINK-32007","OBJECT_ID":"2024-117D","EPOCH":"2026-03-09T05:24:47.361888","MEAN_MOTION":15.30183739,"ECCENTRICITY":0.00011037,"INCLINATION":53.1622,"RA_OF_ASC_NODE":39.4082,"ARG_OF_PERICENTER":96.1423,"MEAN_ANOMALY":263.9703,"EPHEMERIS_TYPE":0,"CLASSIFICATION_TYPE":"U","NORAD_CAT_ID":60094,"ELEMENT_SET_NO":999,"REV_AT_EPOCH":9681,"BSTAR":1.2225872e-5,"MEAN_MOTION_DOT":3.0e-8,"MEAN_MOTION_DDOT":0}]
